OBJECT_NAME,OBJECT_ID,EPOCH,MEAN_MOTION,ECCENTRICITY,INCLINATION,RA_OF_ASC_NODE,ARG_OF_PERICENTER,MEAN_ANOMALY,EPHEMERIS_TYPE,CLASSIFICATION_TYPE,NORAD_CAT_ID,ELEMENT_SET_NO,REV_AT_EPOCH,BSTAR,MEAN_MOTION_DOT,MEAN_MOTION_DDOT
ONEWEB-0572,2023-004M,2026-07-12T12:03:22.127616,13.17650963,.00018305,87.9129,0.8268,88.5683,271.5659,0,U,55151,999,17081,-.33785801E-4,0,0
ONEWEB-0573,2023-004N,2026-07-12T09:09:50.478336,13.18688176,.00028009,87.9185,330.4576,97.9611,262.1839,0,U,55152,999,17301,.13193604E-3,.65E-6,0
ONEWEB-0588,2023-004P,2026-07-11T20:15:19.224000,13.18686445,.00022381,87.9184,330.5641,86.0608,274.0780,0,U,55153,999,17294,-.10347985E-3,-.28E-6,0
ONEWEB-0598,2023-004Q,2026-07-12T13:36:36.982080,13.11417987,.00024683,87.8881,16.0139,100.5124,259.6282,0,U,55154,999,16922,.13454014E-2,.49E-5,0
ONEWEB-0599,2023-004R,2026-07-12T11:07:27.950016,13.17650652,.00018494,87.9140,0.8349,99.5927,260.5414,0,U,55155,999,17081,.75129962E-4,.42E-6,0
ONEWEB-0614,2023-004S,2026-07-12T13:29:17.139552,13.11417879,.0001801,87.8880,16.0236,81.8683,278.2649,0,U,55156,999,16916,.84728833E-3,.313E-5,0
ONEWEB-0616,2023-004T,2026-07-12T12:08:12.892128,13.17650536,.00016444,87.9146,0.8311,122.3759,237.7532,0,U,55157,999,17103,.29948667E-4,.25E-6,0
ONEWEB-0617,2023-004U,2026-07-12T13:12:10.692864,13.11419624,.00019495,87.8891,16.0193,77.5156,282.6190,0,U,55158,999,16918,-.39270424E-3,-.126E-5,0
ONEWEB-0618,2023-004V,2026-07-12T09:15:33.476832,15.13358827,.00117504,86.9105,167.4028,185.5213,174.5899,0,U,55159,999,18607,.12493321E-3,.2264E-4,0
ONEWEB-0619,2023-004W,2026-07-12T11:05:02.228640,13.17650791,.00012226,87.9125,0.8214,75.1312,284.9955,0,U,55160,999,17092,.27987015E-4,.24E-6,0
ONEWEB-0620,2023-004X,2026-07-12T13:04:51.213216,13.11417837,.00020946,87.8876,16.0260,90.1736,269.9632,0,U,55161,999,16915,-.11195032E-2,-.384E-5,0
ONEWEB-0621,2023-004Y,2026-07-12T11:54:04.454496,13.11416688,.00017552,87.8891,16.0276,81.7832,278.3495,0,U,55162,999,16912,.15973474E-2,.579E-5,0
ONEWEB-0622,2023-004Z,2026-07-12T13:51:16.009632,13.11416134,.0002624,87.8887,16.0139,86.9923,273.1505,0,U,55163,999,16912,.15326805E-2,.556E-5,0
ONEWEB-0623,2023-004AA,2026-07-12T10:57:44.915040,13.17648156,.00016556,87.9104,0.8493,50.5832,309.5446,0,U,55164,999,17091,.25652951E-4,.23E-6,0
ONEWEB-0624,2023-004AB,2026-07-12T10:04:53.883840,13.12928895,.00017754,87.8961,345.5636,89.6788,270.4544,0,U,55165,999,17138,.10091046E-2,.378E-5,0
ONEWEB-0625,2023-004AC,2026-07-12T12:32:30.778080,13.17650648,.00017452,87.9138,0.8338,94.3426,265.7905,0,U,55166,999,17091,.18333686E-3,.84E-6,0
ONEWEB-0626,2023-004AD,2026-07-12T12:17:57.564384,13.17650680,.00022027,87.9141,0.8357,100.1450,259.9930,0,U,55167,999,17091,.16165022E-3,.76E-6,0
ONEWEB-0627,2023-004AE,2026-07-12T12:00:56.075328,13.17648183,.00020556,87.9141,0.8381,84.0970,276.0396,0,U,55168,999,17091,.564891E-5,.15E-6,0
ONEWEB-0628,2023-004AF,2026-07-12T09:51:35.180640,13.12443348,.0001599,87.8961,345.6379,72.5391,287.5913,0,U,55169,999,17134,.13035815E-2,.482E-5,0
ONEWEB-0629,2023-004AG,2026-07-12T11:25:42.108384,13.17649573,.0001508,87.9139,0.8388,87.5187,272.6117,0,U,55170,999,17091,-.51199273E-4,-.7E-7,0
ONEWEB-0631,2023-004AH,2026-07-11T20:05:36.518208,13.18686647,.00023001,87.9189,330.5343,89.9513,270.1883,0,U,55171,999,17292,.5921412E-5,.15E-6,0
ONEWEB-0709,2023-004AJ,2026-07-12T12:50:12.481152,13.11416499,.00027983,87.8879,16.0306,103.7220,256.4220,0,U,55172,999,16919,-.15783817E-2,-.547E-5,0
ONEWEB-0710,2023-004AK,2026-07-12T11:46:21.008352,13.17648298,.00019295,87.9141,0.8313,87.1291,273.0062,0,U,55173,999,17091,.16603478E-3,.77E-6,0
ONEWEB-0711,2023-004AL,2026-07-12T12:08:43.323072,13.11415119,.00019799,87.8880,16.0244,69.1514,290.9826,0,U,55174,999,16915,.11047663E-2,.404E-5,0
ONEWEB-0713,2023-004AM,2026-07-12T12:35:33.981504,13.11415084,.00019029,87.8882,16.0226,78.1758,281.9583,0,U,55175,999,16914,-.89159961E-3,-.303E-5,0
ONEWEB-0715,2023-004AN,2026-07-12T12:28:14.711808,13.11414382,.00026265,87.8884,16.0246,94.5282,265.6146,0,U,55176,999,16918,-.32691732E-3,-.103E-5,0
ONEWEB-0716,2023-004AP,2026-07-12T11:36:37.746144,13.17648192,.00018528,87.9139,0.8347,100.8049,259.3292,0,U,55177,999,17091,.134009E-6,.13E-6,0
ONEWEB-0717,2023-004AQ,2026-07-12T11:12:19.944864,13.17650093,.00021087,87.9149,0.8286,74.8158,285.3207,0,U,55178,999,17096,.23905755E-3,.106E-5,0
ONEWEB-0719,2023-004AR,2026-07-12T11:26:54.336192,13.17650828,.00016256,87.9153,0.8069,92.2239,267.9079,0,U,55179,999,17091,-.16335523E-3,-.51E-6,0
ONEWEB-0530,2023-029A,2026-07-12T03:58:12.593856,13.20772885,.00018691,87.9175,269.4899,85.9813,274.1534,0,U,55796,999,16444,.13347636E-3,.67E-6,0
