ONEWEB-0572             
1 55151U 23004M   26193.50233944  .00000000  00000+0 -33786-4 0  9998
2 55151  87.9129   0.8268 0001830  88.5683 271.5659 13.17650963170812
ONEWEB-0573             
1 55152U 23004N   26193.38183424  .00000065  00000+0  13194-3 0  9992
2 55152  87.9185 330.4576 0002800  97.9611 262.1839 13.18688176173011
ONEWEB-0588             
1 55153U 23004P   26192.84397250 -.00000028  00000+0 -10348-3 0  9996
2 55153  87.9184 330.5641 0002238  86.0608 274.0780 13.18686445172940
ONEWEB-0598             
1 55154U 23004Q   26193.56709470  .00000490  00000+0  13454-2 0  9999
2 55154  87.8881  16.0139 0002468 100.5124 259.6282 13.11417987169221
ONEWEB-0599             
1 55155U 23004R   26193.46351794  .00000042  00000+0  75130-4 0  9995
2 55155  87.9140   0.8349 0001849  99.5927 260.5414 13.17650652170814
ONEWEB-0614             
1 55156U 23004S   26193.56200393  .00000313  00000+0  84729-3 0  9999
2 55156  87.8880  16.0236 0001801  81.8683 278.2649 13.11417879169168
ONEWEB-0616             
1 55157U 23004T   26193.50570477  .00000025  00000+0  29949-4 0  9991
2 55157  87.9146   0.8311 0001644 122.3759 237.7532 13.17650536171035
ONEWEB-0617             
1 55158U 23004U   26193.55012376 -.00000126  00000+0 -39270-3 0  9997
2 55158  87.8891  16.0193 0001949  77.5156 282.6190 13.11419624169186
ONEWEB-0618             
1 55159U 23004V   26193.38580413  .00002264  00000+0  12493-3 0  9992
2 55159  86.9105 167.4028 0011750 185.5213 174.5899 15.13358827186071
ONEWEB-0619             
1 55160U 23004W   26193.46183135  .00000024  00000+0  27987-4 0  9990
2 55160  87.9125   0.8214 0001222  75.1312 284.9955 13.17650791170923
ONEWEB-0620             
1 55161U 23004X   26193.54503719 -.00000384  00000+0 -11195-2 0  9997
2 55161  87.8876  16.0260 0002094  90.1736 269.9632 13.11417837169155
ONEWEB-0621             
1 55162U 23004Y   26193.49588489  .00000579  00000+0  15973-2 0  9991
2 55162  87.8891  16.0276 0001755  81.7832 278.3495 13.11416688169127
ONEWEB-0622             
1 55163U 23004Z   26193.57726863  .00000556  00000+0  15327-2 0  9999
2 55163  87.8887  16.0139 0002624  86.9923 273.1505 13.11416134169126
ONEWEB-0623             
1 55164U 23004AA  26193.45676985  .00000023  00000+0  25653-4 0  9990
2 55164  87.9104   0.8493 0001655  50.5832 309.5446 13.17648156170917
ONEWEB-0624             
1 55165U 23004AB  26193.42006810  .00000378  00000+0  10091-2 0  9993
2 55165  87.8961 345.5636 0001775  89.6788 270.4544 13.12928895171385
ONEWEB-0625             
1 55166U 23004AC  26193.52257845  .00000084  00000+0  18334-3 0  9994
2 55166  87.9138   0.8338 0001745  94.3426 265.7905 13.17650648170911
ONEWEB-0626             
1 55167U 23004AD  26193.51247181  .00000076  00000+0  16165-3 0  9997
2 55167  87.9141   0.8357 0002202 100.1450 259.9930 13.17650680170918
ONEWEB-0627             
1 55168U 23004AE  26193.50064902  .00000015  00000+0  56489-5 0  9993
2 55168  87.9141   0.8381 0002055  84.0970 276.0396 13.17648183170910
ONEWEB-0628             
1 55169U 23004AF  26193.41082385  .00000482  00000+0  13036-2 0  9995
2 55169  87.8961 345.6379 0001599  72.5391 287.5913 13.12443348171349
ONEWEB-0629             
1 55170U 23004AG  26193.47618181 -.00000007  00000+0 -51199-4 0  9991
2 55170  87.9139   0.8388 0001508  87.5187 272.6117 13.17649573170914
ONEWEB-0631             
1 55171U 23004AH  26192.83722822  .00000015  00000+0  59214-5 0  9993
2 55171  87.9189 330.5343 0002300  89.9513 270.1883 13.18686647172924
ONEWEB-0709             
1 55172U 23004AJ  26193.53486668 -.00000547  00000+0 -15784-2 0  9990
2 55172  87.8879  16.0306 0002798 103.7220 256.4220 13.11416499169192
ONEWEB-0710             
1 55173U 23004AK  26193.49052093  .00000077  00000+0  16603-3 0  9995
2 55173  87.9141   0.8313 0001929  87.1291 273.0062 13.17648298170914
ONEWEB-0711             
1 55174U 23004AL  26193.50605698  .00000404  00000+0  11048-2 0  9994
2 55174  87.8880  16.0244 0001979  69.1514 290.9826 13.11415119169157
ONEWEB-0713             
1 55175U 23004AM  26193.52469886 -.00000303  00000+0 -89160-3 0  9995
2 55175  87.8882  16.0226 0001902  78.1758 281.9583 13.11415084169146
ONEWEB-0715             
1 55176U 23004AN  26193.51961472 -.00000103  00000+0 -32692-3 0  9999
2 55176  87.8884  16.0246 0002626  94.5282 265.6146 13.11414382169187
ONEWEB-0716             
1 55177U 23004AP  26193.48377021  .00000013  00000+0  13401-6 0  9995
2 55177  87.9139   0.8347 0001852 100.8049 259.3292 13.17648192170916
ONEWEB-0717             
1 55178U 23004AQ  26193.46689751  .00000106  00000+0  23906-3 0  9991
2 55178  87.9149   0.8286 0002108  74.8158 285.3207 13.17650093170969
ONEWEB-0719             
1 55179U 23004AR  26193.47701778 -.00000051  00000+0 -16336-3 0  9997
2 55179  87.9153   0.8069 0001625  92.2239 267.9079 13.17650828170915
ONEWEB-0530             
1 55796U 23029A   26193.16542354  .00000067  00000+0  13348-3 0  9993
2 55796  87.9175 269.4899 0001869  85.9813 274.1534 13.20772885164444
